NORAD_CAT_ID,OBJECT_NAME,OBJECT_TYPE,EPOCH,MEAN_MOTION,ECCENTRICITY,INCLINATION,RA_OF_ASC_NODE,ARG_OF_PERICENTER,MEAN_ANOMALY,BSTAR,MEAN_MOTION_DOT,MEAN_MOTION_DDOT,TLE_LINE0,TLE_LINE1,TLE_LINE2,SEMIMAJOR_AXIS,PERIOD,APOGEE,PERIGEE,DECAYED
54795.0,STARLINK-5436,PAYLOAD,2024-02-15 14:49:11,15.08836491,0.0001257,53.2169,169.6232,81.2013,278.9121,7.5404e-05,9.12e-06,0.0,0 STARLINK-5436,1 54795U 22175AP  24046.61749716  .00000912  00000-0  75404-4 0  9990,2 54795  53.2169 169.6232 0001257  81.2013 278.9121 15.08836491 66442,6917.891,95.438,540.626,538.887,0.0
54795.0,STARLINK-5436,PAYLOAD,2024-02-16 14:39:58,15.0884222,0.000124,53.2174,165.1662,81.4925,278.6207,-8.3176e-06,-4.2e-06,0.0,0 STARLINK-5436,1 54795U 22175AP  24047.61109642 -.00000420  00000-0 -83176-5 0  9991,2 54795  53.2174 165.1662 0001240  81.4925 278.6207 15.08842220 66597,6917.874,95.437,540.596,538.881,0.0
54795.0,STARLINK-5436,PAYLOAD,2024-02-17 11:20:00,15.08831683,0.0001352,53.2167,161.297,89.5031,270.6116,9.0038e-05,1.145e-05,0.0,0 STARLINK-5436,1 54795U 22175AP  24048.47222270  .00001145  00000-0  90038-4 0  9996,2 54795  53.2167 161.2970 0001352  89.5031 270.6116 15.08831683 64566,6917.906,95.438,540.706,538.836,0.0
54795.0,STARLINK-5436,PAYLOAD,2024-02-17 14:30:46,15.08834977,0.0001296,53.2168,160.704,94.0415,266.0725,0.00014226,1.977e-05,0.0,0 STARLINK-5436,1 54795U 22175AP  24048.60469958  .00001977  00000-0  14226-3 0  9994,2 54795  53.2168 160.7040 0001296  94.0415 266.0725 15.08834977 66749,6917.896,95.438,540.657,538.864,0.0
54795.0,STARLINK-5436,PAYLOAD,2024-02-18 00:03:04,15.0883836,0.0001173,53.2169,158.9205,104.3622,255.7501,5.9317e-05,6.56e-06,0.0,0 STARLINK-5436,1 54795U 22175AP  24049.00213942  .00000656  00000-0  59317-4 0  9993,2 54795  53.2169 158.9205 0001173 104.3622 255.7501 15.08838360 64645,6917.885,95.438,540.562,538.939,0.0
54795.0,STARLINK-5436,PAYLOAD,2024-02-18 11:10:47,15.08829964,0.0001565,53.2177,156.8401,104.0135,256.1031,3.5308e-05,2.74e-06,0.0,0 STARLINK-5436,1 54795U 22175AP  24049.46583107  .00000274  00000-0  35308-4 0  9996,2 54795  53.2177 156.8401 0001565 104.0135 256.1031 15.08829964 64711,6917.911,95.438,540.859,538.693,0.0
54795.0,STARLINK-5436,PAYLOAD,2024-02-18 12:46:10,15.08832275,0.0001629,53.2165,156.5385,86.1018,274.016,2.5759e-05,1.22e-06,0.0,0 STARLINK-5436,1 54795U 22175AP  24049.53207030  .00000122  00000-0  25759-4 0  9993,2 54795  53.2165 156.5385 0001629  86.1018 274.0160 15.08832275 66888,6917.904,95.438,540.896,538.642,0.0
54795.0,STARLINK-5436,PAYLOAD,2024-02-18 15:56:56,15.08840152,0.0001721,53.2191,155.9429,83.9233,276.1955,8.0286e-05,9.9e-06,0.0,0 STARLINK-5436,1 54795U 22175AP  24049.66454468  .00000990  00000-0  80286-4 0  9995,2 54795  53.2191 155.9429 0001721  83.9233 276.1955 15.08840152 64747,6917.88,95.438,540.935,538.554,0.0
54795.0,STARLINK-5436,PAYLOAD,2024-02-19 14:12:20,15.08842163,0.0001912,53.2194,151.7802,90.7361,269.385,7.8752e-05,9.65e-06,0.0,0 STARLINK-5436,1 54795U 22175AP  24050.59190483  .00000965  00000-0  78752-4 0  9990,2 54795  53.2194 151.7802 0001912  90.7361 269.3850 15.08842163 67047,6917.874,95.437,541.061,538.416,0.0
54795.0,STARLINK-5436,PAYLOAD,2024-02-19 15:47:43,15.08842389,0.0001942,53.219,151.4803,86.5911,273.5304,9.9284e-05,1.292e-05,0.0,0 STARLINK-5436,1 54795U 22175AP  24050.65814413  .00001292  00000-0  99284-4 0  9990,2 54795  53.2190 151.4803 0001942  86.5911 273.5304 15.08842389 67050,6917.873,95.437,541.082,538.395,0.0
54795.0,STARLINK-5436,PAYLOAD,2024-02-20 12:27:44,15.08840908,0.0001998,53.2176,147.6184,95.0218,265.1003,0.00012759,1.743e-05,0.0,0 STARLINK-5436,1 54795U 22175AP  24051.51926354  .00001743  00000-0  12759-3 0  9996,2 54795  53.2176 147.6184 0001998  95.0218 265.1003 15.08840908 65022,6917.878,95.437,541.125,538.36,0.0
54795.0,STARLINK-5436,PAYLOAD,2024-02-20 14:03:07,15.08849911,0.0001738,53.2172,147.3213,85.2651,274.854,7.7921e-05,9.53e-06,0.0,0 STARLINK-5436,1 54795U 22175AP  24051.58549932  .00000953  00000-0  77921-4 0  9991,2 54795  53.2172 147.3213 0001738  85.2651 274.8540 15.08849911 67198,6917.85,95.437,540.917,538.513,0.0
54795.0,STARLINK-5436,PAYLOAD,2024-02-21 12:18:31,15.08844312,0.0001863,53.218,143.1541,90.048,270.0726,6.3342e-05,7.2e-06,0.0,0 STARLINK-5436,1 54795U 22175AP  24052.51285993  .00000720  00000-0  63342-4 0  9993,2 54795  53.2180 143.1541 0001863  90.0480 270.0726 15.08844312 65178,6917.867,95.437,541.021,538.443,0.0
54795.0,STARLINK-5436,PAYLOAD,2024-02-22 12:09:18,15.08845781,0.000167,53.2176,138.6954,98.7341,261.3841,-1.7777e-05,-5.71e-06,0.0,0 STARLINK-5436,1 54795U 22175AP  24053.50645862 -.00000571  00000-0 -17777-4 0  9995,2 54795  53.2176 138.6954 0001670  98.7341 261.3841 15.08845781 67485,6917.863,95.437,540.883,538.572,0.0
54795.0,STARLINK-5436,PAYLOAD,2024-02-23 12:00:05,15.08836548,0.0001463,53.2166,134.2377,87.0834,273.0325,1.9049e-05,1.5e-07,0.0,0 STARLINK-5436,1 54795U 22175AP  24054.50006431  .00000015  00000-0  19049-4 0  9994,2 54795  53.2166 134.2377 0001463  87.0834 273.0325 15.08836548 65478,6917.891,95.438,540.768,538.744,0.0
54795.0,STARLINK-5436,PAYLOAD,2024-02-24 11:50:51,15.08847452,0.0001487,53.2177,129.7762,89.0952,271.0211,8.5463e-05,1.073e-05,0.0,0 STARLINK-5436,1 54795U 22175AP  24055.49365720  .00001073  00000-0  85463-4 0  9990,2 54795  53.2177 129.7762 0001487  89.0952 271.0211 15.08847452 65621,6917.858,95.437,540.751,538.694,0.0
54795.0,STARLINK-5436,PAYLOAD,2024-02-25 03:44:43,15.08839007,0.0001625,53.219,126.8067,94.5936,265.5242,9.8259e-05,1.276e-05,0.0,0 STARLINK-5436,1 54795U 22175AP  24056.15606240  .00001276  00000-0  98259-4 0  9991,2 54795  53.2190 126.8067 0001625  94.5936 265.5242 15.08839007 65729,6917.883,95.438,540.873,538.624,0.0
54795.0,STARLINK-5436,PAYLOAD,2024-02-25 11:41:39,15.08845821,0.0001582,53.2183,125.3167,84.5349,275.5824,0.00011213,1.497e-05,0.0,0 STARLINK-5436,1 54795U 22175AP  24056.48725926  .00001497  00000-0  11213-3 0  9999,2 54795  53.2183 125.3167 0001582  84.5349 275.5824 15.08845821 67938,6917.863,95.437,540.822,538.633,0.0
54795.0,STARLINK-5436,PAYLOAD,2024-02-25 21:13:58,15.08836114,0.000167,53.2183,123.5328,87.5568,272.5615,0.00022042,3.221e-05,0.0,0 STARLINK-5436,1 54795U 22175AP  24056.88470236  .00003221  00000-0  22042-3 0  9993,2 54795  53.2183 123.5328 0001670  87.5568 272.5615 15.08836114 67997,6917.892,95.438,540.913,538.602,0.0
54795.0,STARLINK-5436,PAYLOAD,2024-02-26 11:32:26,15.0884163,0.0001665,53.2194,120.8581,91.6057,268.5126,-9.0812e-06,-4.33e-06,0.0,0 STARLINK-5436,1 54795U 22175AP  24057.48086304 -.00000433  00000-0 -90812-5 0  9995,2 54795  53.2194 120.8581 0001665  91.6057 268.5126 15.08841630 65925,6917.875,95.437,540.892,538.589,0.0
54795.0,STARLINK-5436,PAYLOAD,2024-02-27 11:23:14,15.08836372,0.0001665,53.2181,116.396,82.8869,277.2312,-5.1531e-05,-1.108e-05,0.0,0 STARLINK-5436,1 54795U 22175AP  24058.47446997 -.00001108  00000-0 -51531-4 0  9997,2 54795  53.2181 116.3960 0001665  82.8869 277.2312 15.08836372 66073,6917.891,95.438,540.908,538.605,0.0
54795.0,STARLINK-5436,PAYLOAD,2024-02-27 20:55:32,15.08839884,0.0001495,53.2173,114.6101,85.0708,275.0455,-1.1769e-05,-4.75e-06,0.0,0 STARLINK-5436,1 54795U 22175AP  24058.87190608 -.00000475  00000-0 -11769-4 0  9991,2 54795  53.2173 114.6101 0001495  85.0708 275.0455 15.08839884 68291,6917.881,95.438,540.78,538.712,0.0
54795.0,STARLINK-5436,PAYLOAD,2024-02-28 11:14:00,15.08845508,0.0001479,53.2168,111.9343,87.1758,272.9403,7.4364e-05,8.96e-06,0.0,0 STARLINK-5436,1 54795U 22175AP  24059.46806030  .00000896  00000-0  74364-4 0  9995,2 54795  53.2168 111.9343 0001479  87.1758 272.9403 15.08845508 66223,6917.864,95.437,540.752,538.705,0.0
54795.0,STARLINK-5436,PAYLOAD,2024-02-28 20:46:19,15.08837619,0.0001856,53.2158,110.1488,66.3242,293.7945,3.7732e-05,3.12e-06,0.0,0 STARLINK-5436,1 54795U 22175AP  24059.86550715  .00000312  00000-0  37732-4 0  9996,2 54795  53.2158 110.1488 0001856  66.3242 293.7945 15.08837619 68441,6917.888,95.438,541.037,538.469,0.0
54795.0,STARLINK-5436,PAYLOAD,2024-02-29 12:40:10,15.08840768,0.0001562,53.2174,107.1745,88.0982,272.0189,6.394e-05,7.3e-06,0.0,0 STARLINK-5436,1 54795U 22175AP  24060.52790502  .00000730  00000-0  63940-4 0  9995,2 54795  53.2174 107.1745 0001562  88.0982 272.0189 15.08840768 68547,6917.878,95.438,540.824,538.662,0.0
54795.0,STARLINK-5436,PAYLOAD,2024-03-01 02:58:39,15.08834834,0.0001411,53.2177,104.4974,91.2934,268.8219,7.375e-05,8.86e-06,0.0,0 STARLINK-5436,1 54795U 22175AP  24061.12406798  .00000886  00000-0  73750-4 0  9995,2 54795  53.2177 104.4974 0001411  91.2934 268.8219 15.08834834 66474,6917.896,95.438,540.737,538.785,0.0
54795.0,STARLINK-5436,PAYLOAD,2024-03-01 09:20:11,15.0884154,0.0001456,53.217,103.3087,88.7189,271.397,9.4682e-05,1.219e-05,0.0,0 STARLINK-5436,1 54795U 22175AP  24061.38902333  .00001219  00000-0  94682-4 0  9997,2 54795  53.2170 103.3087 0001456  88.7189 271.3970 15.08841540 66512,6917.876,95.437,540.748,538.733,0.0
54795.0,STARLINK-5436,PAYLOAD,2024-03-02 09:10:59,15.08838622,0.0001694,53.2169,98.8486,88.5889,271.5297,1.022e-05,-1.25e-06,0.0,0 STARLINK-5436,1 54795U 22175AP  24062.38262761 -.00000125  00000-0  10220-4 0  9994,2 54795  53.2169  98.8486 0001694  88.5889 271.5297 15.08838622 66667,6917.885,95.438,540.921,538.578,0.0
54795.0,STARLINK-5436,PAYLOAD,2024-03-03 09:01:46,15.08839615,0.0001637,53.217,94.3882,88.0782,272.0398,-3.8916e-06,-3.5e-06,0.0,0 STARLINK-5436,1 54795U 22175AP  24063.37622913 -.00000350  00000-0 -38916-5 0  9997,2 54795  53.2170  94.3882 0001637  88.0782 272.0398 15.08839615 68971,6917.882,95.438,540.879,538.614,0.0
54795.0,STARLINK-5436,PAYLOAD,2024-03-04 02:31:00,15.08836708,0.0001778,53.2176,91.1205,103.3975,256.7215,5.231e-05,5.44e-06,0.0,0 STARLINK-5436,1 54795U 22175AP  24064.10486988  .00000544  00000-0  52310-4 0  9995,2 54795  53.2176  91.1205 0001778 103.3975 256.7215 15.08836708 66922,6917.89,95.438,540.985,538.525,0.0
